DECODE 2-LINE ELSETS WITH THE FOLLOWING KEY:
1 AAAAAU 00  0  0 BBBBB.BBBBBBBB  .CCCCCCCC  00000-0  00000-0 0  DDDZ
2 AAAAA EEE.EEEE FFF.FFFF GGGGGGG HHH.HHHH III.IIII JJ.JJJJJJJJKKKKKZ
KEY: A-CATALOGNUM B-EPOCHTIME C-DECAY D-ELSETNUM E-INCLINATION F-RAAN
G-ECCENTRICITY H-ARGPERIGEE I-MNANOM J-MNMOTION K-ORBITNUM Z-CHECKSUM

TO ALL RADIO AMATEURS BT

AO-07
1 07530U 74089B   12186.62272335 -.00000027  00000-0  10000-3 0 04237
2 07530 101.4027 183.1602 0011553 248.9865 110.9971 12.53590036722238
FO-29
1 24278U 96046B   12186.34146136 -.00000038  00000-0 -80516-6 0 09241
2 24278 098.5872 284.7513 0350379 345.0507 014.0478 13.52984137784270
SO-33
1 25509U 98061B   12186.52736649  .00000160  00000-0  20401-4 0 02716
2 25509 031.4351 235.5598 0352598 354.9564 004.7560 14.28784261715137
RS-22
1 27939U 03042A   12186.76688135  .00000486  00000-0  10106-3 0 05064
2 27939 097.8107 026.6799 0012812 205.3580 154.6994 14.64056270468450
VO-52
1 28650U 05017B   12186.66518206  .00001375  00000-0  17443-3 0 01468
2 28650 097.5959 216.7647 0026036 346.7289 013.3230 14.83021109387566
HO-68
1 36122U 09072B   12186.77317736 -.00000044  00000-0  00000-0 0 06133
2 36122 100.3599 245.7646 0007885 070.5171 289.6785 13.16296558122709
UO-11
1 14781U 84021B   12186.82864432  .00000392  00000-0  58108-4 0 09216
2 14781 097.9532 246.1940 0008566 343.7431 016.3506 14.80480057522540
AO-16
1 20439U 90005D   12186.90419208  .00000041  00000-0  31015-4 0 05112
2 20439 098.4318 129.7827 0011742 104.0036 256.2453 14.32062456172536
LO-19
1 20442U 90005G   12186.92450594  .00000012  00000-0  19871-4 0 04529
2 20442 098.3948 132.7457 0012802 097.0085 263.2555 14.32280454172726
AO-27
1 22825U 93061C   12186.88491635  .00000090  00000-0  52270-4 0 01429
2 22825 098.5719 129.4244 0007706 222.1841 137.8745 14.29468615979002
IO-26
1 22826U 93061D   12186.88240179  .00000048  00000-0  35807-4 0 08994
2 22826 098.5702 129.7875 0008098 219.2047 140.8547 14.29742949979131
GO-32
1 25397U 98043D   12186.55088053  .00000015  00000-0  24582-4 0 08183
2 25397 098.3615 164.4052 0000635 176.0599 184.0557 14.23280979726496
NO-44
1 26931U 01043C   12186.94835454 -.00000130  00000-0 -18157-4 0 00835
2 26931 067.0532 074.5671 0007528 259.6333 100.3895 14.29808168561789
SO-50
1 27607U 02058C   12186.62521029  .00000477  00000-0  92904-4 0 08043
2 27607 064.5577 241.8525 0082092 245.1657 114.0890 14.72418476512539
CO-55
1 27844U 03031E   12186.52447700  .00000142  00000-0  85447-4 0 04128
2 27844 098.7033 194.6511 0009601 167.3572 192.7854 14.21036895467351
CO-57
1 27848U 03031J   12186.53116025  .00000127  00000-0  79220-4 0 03614
2 27848 098.7111 193.9987 0009523 171.8864 188.2466 14.20787031467294
AO-51
1 28375U 04025K   12186.85644218  .00000159  00000-0  60328-4 0 03084
2 28375 098.1487 151.3105 0084300 348.1924 011.7240 14.40961201421310
