Satellite: AO-07
Catalog number: 07530
Epoch time:      12186.62272335
Element set:    0423
Inclination:      101.4027 deg
RA of node:       183.1602 deg
Eccentricity:    0.0011553
Arg of perigee:   248.9865 deg
Mean anomaly:     110.9971 deg
Mean motion:   12.53590036 rev/day
Decay rate:       -2.7e-07 rev/day^2
Epoch rev:           72223
Checksum:              271

Satellite: FO-29
Catalog number: 24278
Epoch time:      12186.34146136
Element set:    0924
Inclination:      098.5872 deg
RA of node:       284.7513 deg
Eccentricity:    0.0350379
Arg of perigee:   345.0507 deg
Mean anomaly:     014.0478 deg
Mean motion:   13.52984137 rev/day
Decay rate:       -3.8e-07 rev/day^2
Epoch rev:           78427
Checksum:              333

Satellite: SO-33
Catalog number: 25509
Epoch time:      12186.52736649
Element set:    0271
Inclination:      031.4351 deg
RA of node:       235.5598 deg
Eccentricity:    0.0352598
Arg of perigee:   354.9564 deg
Mean anomaly:     004.7560 deg
Mean motion:   14.28784261 rev/day
Decay rate:       1.60e-06 rev/day^2
Epoch rev:           71513
Checksum:              318

Satellite: RS-22
Catalog number: 27939
Epoch time:      12186.76688135
Element set:    0506
Inclination:      097.8107 deg
RA of node:       026.6799 deg
Eccentricity:    0.0012812
Arg of perigee:   205.3580 deg
Mean anomaly:     154.6994 deg
Mean motion:   14.64056270 rev/day
Decay rate:       4.86e-06 rev/day^2
Epoch rev:           46845
Checksum:              343

Satellite: VO-52
Catalog number: 28650
Epoch time:      12186.66518206
Element set:    0146
Inclination:      097.5959 deg
RA of node:       216.7647 deg
Eccentricity:    0.0026036
Arg of perigee:   346.7289 deg
Mean anomaly:     013.3230 deg
Mean motion:   14.83021109 rev/day
Decay rate:      1.375e-05 rev/day^2
Epoch rev:           38756
Checksum:              319

Satellite: HO-68
Catalog number: 36122
Epoch time:      12186.77317736
Element set:    0613
Inclination:      100.3599 deg
RA of node:       245.7646 deg
Eccentricity:    0.0007885
Arg of perigee:   070.5171 deg
Mean anomaly:     289.6785 deg
Mean motion:   13.16296558 rev/day
Decay rate:       -4.4e-07 rev/day^2
Epoch rev:           12270
Checksum:              330

/EX
SB KEPS @ AMSAT  $ORB12187.D
Orbital Elements  12187.MICROS

HR AMSAT ORBITAL ELEMENTS FOR THE MICROSATS
FROM WA5QGD FORT WORTH,TX July 5, 2012
Send SUBSCRIBE KEPS/UNSUBSCRIBE KEPS to majordomo at amsat.org only
BID: ORB12187.D
TO ALL RADIO AMATEURS BT

Satellite: UO-11
Catalog number: 14781
Epoch time:      12186.82864432
Element set:    0921
Inclination:      097.9532 deg
RA of node:       246.1940 deg
Eccentricity:    0.0008566
Arg of perigee:   343.7431 deg
Mean anomaly:     016.3506 deg
Mean motion:   14.80480057 rev/day
Decay rate:       3.92e-06 rev/day^2
Epoch rev:           52254
Checksum:              301

Satellite: AO-16
Catalog number: 20439
Epoch time:      12186.90419208
Element set:    0511
Inclination:      098.4318 deg
RA of node:       129.7827 deg
Eccentricity:    0.0011742
Arg of perigee:   104.0036 deg
Mean anomaly:     256.2453 deg
Mean motion:   14.32062456 rev/day
Decay rate:        4.1e-07 rev/day^2
Epoch rev:           17253
Checksum:              275

Satellite: LO-19
Catalog number: 20442
Epoch time:      12186.92450594
Element set:    0452
Inclination:      098.3948 deg
RA of node:       132.7457 deg
Eccentricity:    0.0012802
Arg of perigee:   097.0085 deg
Mean anomaly:     263.2555 deg
Mean motion:   14.32280454 rev/day
Decay rate:        1.2e-07 rev/day^2
Epoch rev:           17272
Checksum:              295

Satellite: AO-27
Catalog number: 22825
Epoch time:      12186.88491635
Element set:    0142
Inclination:      098.5719 deg
RA of node:       129.4244 deg
Eccentricity:    0.0007706
Arg of perigee:   222.1841 deg
Mean anomaly:     137.8745 deg
Mean motion:   14.29468615 rev/day
Decay rate:        9.0e-07 rev/day^2
Epoch rev:           97900
Checksum:              328

Satellite: IO-26
Catalog number: 22826
Epoch time:      12186.88240179
Element set:    0899
Inclination:      098.5702 deg
RA of node:       129.7875 deg
Eccentricity:    0.0008098
Arg of perigee:   219.2047 deg
Mean anomaly:     140.8547 deg
Mean motion:   14.29742949 rev/day
Decay rate:        4.8e-07 rev/day^2
Epoch rev:           97913
Checksum:              363

Satellite: GO-32
Catalog number: 25397
Epoch time:      12186.55088053
Element set:    0818
Inclination:      098.3615 deg
RA of node:       164.4052 deg
Eccentricity:    0.0000635
Arg of perigee:   176.0599 deg
Mean anomaly:     184.0557 deg
Mean motion:   14.23280979 rev/day
Decay rate:        1.5e-07 rev/day^2
Epoch rev:           72649
Checksum:              325

Satellite: NO-44
Catalog number: 26931
Epoch time:      12186.94835454
Element set:    0083
Inclination:      067.0532 deg
RA of node:       074.5671 deg
Eccentricity:    0.0007528
Arg of perigee:   259.6333 deg
Mean anomaly:     100.3895 deg
Mean motion:   14.29808168 rev/day
Decay rate:      -1.30e-06 rev/day^2
Epoch rev:           56178
Checksum:              321

Satellite: SO-50
Catalog number: 27607
Epoch time:      12186.62521029
Element set:    0804
Inclination:      064.5577 deg
RA of node:       241.8525 deg
Eccentricity:    0.0082092
Arg of perigee:   245.1657 deg
Mean anomaly:     114.0890 deg
Mean motion:   14.72418476 rev/day
Decay rate:       4.77e-06 rev/day^2
Epoch rev:           51253
Checksum:              307

Satellite: CO-55
Catalog number: 27844
Epoch time:      12186.52447700
Element set:    0412
Inclination:      098.7033 deg
RA of node:       194.6511 deg
Eccentricity:    0.0009601
Arg of perigee:   167.3572 deg
Mean anomaly:     192.7854 deg
Mean motion:   14.21036895 rev/day
Decay rate:       1.42e-06 rev/day^2
Epoch rev:           46735
Checksum:              310

Satellite: CO-57
Catalog number: 27848
Epoch time:      12186.53116025
Element set:    0361
Inclination:      098.7111 deg
RA of node:       193.9987 deg
Eccentricity:    0.0009523
Arg of perigee:   171.8864 deg
Mean anomaly:     188.2466 deg
Mean motion:   14.20787031 rev/day
Decay rate:       1.27e-06 rev/day^2
Epoch rev:           46729
Checksum:              335

Satellite: AO-51
Catalog number: 28375
Epoch time:      12186.85644218
Element set:    0308
Inclination:      098.1487 deg
RA of node:       151.3105 deg
Eccentricity:    0.0084300
Arg of perigee:   348.1924 deg
Mean anomaly:     011.7240 deg
Mean motion:   14.40961201 rev/day
Decay rate:       1.59e-06 rev/day^2
Epoch rev:           42131
Checksum:              276

